

[
   {
      "links":{
         "self":"http://www.neowsapp.com/rest/v1/neo/2001685?api_key=90GarKwRkqcLpOMJnSLkbvOa9LghMB0xcMJw1CIU"
      },
      "id":"2001685",
      "neo_reference_id":"2001685",
      "name":"1685 Toro (1948 OA)",
      "name_limited":"Toro",
      "designation":"1685",
      "nasa_jpl_url":"http://ssd.jpl.nasa.gov/sbdb.cgi?sstr=2001685",
      "absolute_magnitude_h":14.34,
      "estimated_diameter":{
         "kilometers":{
            "estimated_diameter_min":3.602093458,
            "estimated_diameter_max":8.0545258335
         },
         "meters":{
            "estimated_diameter_min":3602.0934580291,
            "estimated_diameter_max":8054.5258334603
         },
         "miles":{
            "estimated_diameter_min":2.2382364141,
            "estimated_diameter_max":5.0048487717
         },
         "feet":{
            "estimated_diameter_min":11817.89230084,
            "estimated_diameter_max":26425.6105354497
         }
      },
      "is_potentially_hazardous_asteroid":false,
      "close_approach_data":{
         "close_approach_date":"1900-08-02",
         "close_approach_date_full":"1900-Aug-02 11:05",
         "epoch_date_close_approach":-2190545700000,
         "relative_velocity":{
            "kilometers_per_second":"17.0091195491",
            "kilometers_per_hour":"61232.8303767449",
            "miles_per_hour":"38047.6995193724"
         },
         "miss_distance":{
            "astronomical":"0.2002659251",
            "lunar":"77.9034448639",
            "kilometers":"29959355.828539537",
            "miles":"18615880.4820061306"
         },
         "orbiting_body":"Earth"
      },
      "orbital_data":{
         "orbit_id":"612",
         "orbit_determination_date":"2021-08-19 06:19:27",
         "first_observation_date":"1948-07-17",
         "last_observation_date":"2021-08-04",
         "data_arc_in_days":26681,
         "observations_used":3641,
         "orbit_uncertainty":"0",
         "minimum_orbit_intersection":".0506061",
         "jupiter_tisserand_invariant":"4.716",
         "epoch_osculation":"2459396.5",
         "eccentricity":".4359178060248226",
         "semi_major_axis":"1.367465387039484",
         "inclination":"9.382661960592255",
         "ascending_node_longitude":"274.2374117826449",
         "orbital_period":"584.0808136818316",
         "perihelion_distance":".7713628757063471",
         "perihelion_argument":"127.2161644354719",
         "aphelion_distance":"1.96356789837262",
         "perihelion_time":"2459113.690440438451",
         "mean_anomaly":"174.310538982398",
         "mean_motion":".6163530654785454",
         "equinox":"J2000",
         "orbit_class":{
            "orbit_class_type":"APO",
            "orbit_class_description":"Near-Earth asteroid orbits which cross the Earth\u2019s orbit similar to that of 1862 Apollo",
            "orbit_class_range":"a (semi-major axis) > 1.0 AU; q (perihelion) < 1.017 AU"
         }
      },
      "is_sentry_object":false
   },
   {
      "links":{
         "self":"http://www.neowsapp.com/rest/v1/neo/2001862?api_key=90GarKwRkqcLpOMJnSLkbvOa9LghMB0xcMJw1CIU"
      },
      "id":"2001862",
      "neo_reference_id":"2001862",
      "name":"1862 Apollo (1932 HA)",
      "name_limited":"Apollo",
      "designation":"1862",
      "nasa_jpl_url":"http://ssd.jpl.nasa.gov/sbdb.cgi?sstr=2001862",
      "absolute_magnitude_h":16.1,
      "estimated_diameter":{
         "kilometers":{
            "estimated_diameter_min":1.6016033798,
            "estimated_diameter_max":3.5812940302
         },
         "meters":{
            "estimated_diameter_min":1601.6033797856,
            "estimated_diameter_max":3581.2940301941
         },
         "miles":{
            "estimated_diameter_min":0.9951898937,
            "estimated_diameter_max":2.2253122528
         },
         "feet":{
            "estimated_diameter_min":5254.6044325359,
            "estimated_diameter_max":11749.652706022
         }
      },
      "is_potentially_hazardous_asteroid":true,
      "close_approach_data":{
         "close_approach_date":"1905-10-06",
         "close_approach_date_full":"1905-Oct-06 20:28",
         "epoch_date_close_approach":-2027129520000,
         "relative_velocity":{
            "kilometers_per_second":"12.3118879268",
            "kilometers_per_hour":"44322.7965364832",
            "miles_per_hour":"27540.4621034609"
         },
         "miss_distance":{
            "astronomical":"0.2670369613",
            "lunar":"103.8773779457",
            "kilometers":"39948160.621752431",
            "miles":"24822635.9694323078"
         },
         "orbiting_body":"Earth"
      },
      "orbital_data":{
         "orbit_id":"356",
         "orbit_determination_date":"2021-08-24 15:54:23",
         "first_observation_date":"1930-12-13",
         "last_observation_date":"2021-07-01",
         "data_arc_in_days":33073,
         "observations_used":1923,
         "orbit_uncertainty":"0",
         "minimum_orbit_intersection":".0260206",
         "jupiter_tisserand_invariant":"4.414",
         "epoch_osculation":"2459396.5",
         "eccentricity":".5600025048004157",
         "semi_major_axis":"1.470258425675975",
         "inclination":"6.355278839294912",
         "ascending_node_longitude":"35.61184033173579",
         "orbital_period":"651.1618408183723",
         "perihelion_distance":".6469100245935131",
         "perihelion_argument":"286.0053740681718",
         "aphelion_distance":"2.293606826758436",
         "perihelion_time":"2459491.589739453630",
         "mean_anomaly":"307.428881642874",
         "mean_motion":".5528579493349247",
         "equinox":"J2000",
         "orbit_class":{
            "orbit_class_type":"APO",
            "orbit_class_description":"Near-Earth asteroid orbits which cross the Earth\u2019s orbit similar to that of 1862 Apollo",
            "orbit_class_range":"a (semi-major axis) > 1.0 AU; q (perihelion) < 1.017 AU"
         }
      },
      "is_sentry_object":false
   },
   {
      "links":{
         "self":"http://www.neowsapp.com/rest/v1/neo/2001863?api_key=90GarKwRkqcLpOMJnSLkbvOa9LghMB0xcMJw1CIU"
      },
      "id":"2001863",
      "neo_reference_id":"2001863",
      "name":"1863 Antinous (1948 EA)",
      "name_limited":"Antinous",
      "designation":"1863",
      "nasa_jpl_url":"http://ssd.jpl.nasa.gov/sbdb.cgi?sstr=2001863",
      "absolute_magnitude_h":15.4,
      "estimated_diameter":{
         "kilometers":{
            "estimated_diameter_min":2.2108281036,
            "estimated_diameter_max":4.9435619262
         },
         "meters":{
            "estimated_diameter_min":2210.8281035909,
            "estimated_diameter_max":4943.5619261962
         },
         "miles":{
            "estimated_diameter_min":1.3737444696,
            "estimated_diameter_max":3.0717860176
         },
         "feet":{
            "estimated_diameter_min":7253.3732753852,
            "estimated_diameter_max":16219.0357099415
         }
      },
      "is_potentially_hazardous_asteroid":false,
      "close_approach_data":{
         "close_approach_date":"1907-10-11",
         "close_approach_date_full":"1907-Oct-11 06:15",
         "epoch_date_close_approach":-1963676700000,
         "relative_velocity":{
            "kilometers_per_second":"18.0795350719",
            "kilometers_per_hour":"65086.326258714",
            "miles_per_hour":"40442.1120022548"
         },
         "miss_distance":{
            "astronomical":"0.0894322415",
            "lunar":"34.7891419435",
            "kilometers":"13378872.837725605",
            "miles":"8313246.091019149"
         },
         "orbiting_body":"Mars"
      },
      "orbital_data":{
         "orbit_id":"201",
         "orbit_determination_date":"2021-07-02 05:52:54",
         "first_observation_date":"1948-03-05",
         "last_observation_date":"2021-01-16",
         "data_arc_in_days":26615,
         "observations_used":1049,
         "orbit_uncertainty":"0",
         "minimum_orbit_intersection":".183727",
         "jupiter_tisserand_invariant":"3.298",
         "epoch_osculation":"2459396.5",
         "eccentricity":".606198741117313",
         "semi_major_axis":"2.25890232290595",
         "inclination":"18.3988404541856",
         "ascending_node_longitude":"346.4268138532708",
         "orbital_period":"1240.065442280309",
         "perihelion_distance":".8895585784533888",
         "perihelion_argument":"268.0933509139837",
         "aphelion_distance":"3.62824606735851",
         "perihelion_time":"2460000.037434881164",
         "mean_anomaly":"184.7887013465328",
         "mean_motion":".2903072593798031",
         "equinox":"J2000",
         "orbit_class":{
            "orbit_class_type":"APO",
            "orbit_class_description":"Near-Earth asteroid orbits which cross the Earth\u2019s orbit similar to that of 1862 Apollo",
            "orbit_class_range":"a (semi-major axis) > 1.0 AU; q (perihelion) < 1.017 AU"
         }
      },
      "is_sentry_object":false
   }
]